[{"OBJECT_NAME":"STARLINK-33735","OBJECT_ID":"2025-070Q","EPOCH":"2026-03-09T12:44:41.224416","MEAN_MOTION":15.27594983,"ECCENTRICITY":0.00016853,"INCLINATION":42.9978,"RA_OF_ASC_NODE":260.5626,"ARG_OF_PERICENTER":278.6437,"MEAN_ANOMALY":81.4224,"EPHEMERIS_TYPE":0,"CLASSIFICATION_TYPE":"U","NORAD_CAT_ID":63474,"ELEMENT_SET_NO":999,"REV_AT_EPOCH":5295,"BSTAR":0.0010211458,"MEAN_MOTION_DOT":0.00027957,"MEAN_MOTION_DDOT":0},{"OBJECT_NAME":"GEOSCAN 1 (RS92S1)","OBJECT_ID":"2025-155E","EPOCH":"2026-03-09T22:44:05.846496","MEAN_MOTION":15.28410635,"ECCENTRICITY":0.00087099,"INCLINATION":97.4463,"RA_OF_ASC_NODE":37.403,"ARG_OF_PERICENTER":153.6429,"MEAN_ANOMALY":206.5255,"EPHEMERIS_TYPE":0,"CLASSIFICATION_TYPE":"U","NORAD_CAT_ID":64880,"ELEMENT_SET_NO":999,"REV_AT_EPOCH":6560,"BSTAR":0.00054367431,"MEAN_MOTION_DOT":0.00014993,"MEAN_MOTION_DDOT":0}]
